0 OPS 4682 DEB
1 38445U 65027FA  13283.18252964  .00000302  00000-0  10657-2 0   692
2 38445 090.2807 248.8526 0033826 097.7866 262.7095 12.93792928441105
0 OPS 4682 DEB
1 38445U 65027FA  13287.20397886 -.00000120  00000-0 -46197-3 0   714
2 38445 090.2808 248.9539 0034006 087.8810 272.6202 12.93796302441628
0 OPS 4682 DEB
1 38445U 65027FA  13288.67334760  .00000260  00000-0  91298-3 0   724
2 38445 090.2813 248.9910 0034069 084.2424 276.2577 12.93792866441815
0 OPS 4682 DEB
1 38445U 65027FA  13290.14271916  .00000555  00000-0  19834-2 0   735
2 38445 090.2816 249.0292 0034137 080.4535 280.0439 12.93790937441996
0 OPS 4682 DEB
1 38445U 65027FA  13291.14808097  .00000575  00000-0  20563-2 0   746
2 38445 090.2818 249.0551 0034157 077.9678 282.5265 12.93791558442127
0 OPS 4682 DEB
1 38445U 65027FA  13292.15344404  .00000453  00000-0  16135-2 0   751
2 38445 090.2816 249.0806 0034199 075.5622 284.9288 12.93793773442253
0 OPS 4682 DEB
1 38445U 65027FA  13293.31347838  .00000175  00000-0  60690-3 0   762
2 38445 090.2817 249.1105 0034221 072.7105 287.7753 12.93797447442405
0 OPS 4682 DEB
1 38445U 65027FA  13295.32419717 -.00000161  00000-0 -60967-3 0   776
2 38445 090.2817 249.1622 0034255 067.7349 292.7397 12.93801542442660
